[{"OBJECT_NAME":"STARLINK-30714","OBJECT_ID":"2023-148E","EPOCH":"2026-03-09T06:26:10.169664","MEAN_MOTION":15.30192407,"ECCENTRICITY":0.00010686,"INCLINATION":53.1611,"RA_OF_ASC_NODE":26.4425,"ARG_OF_PERICENTER":87.7795,"MEAN_ANOMALY":272.3328,"EPHEMERIS_TYPE":0,"CLASSIFICATION_TYPE":"U","NORAD_CAT_ID":57939,"ELEMENT_SET_NO":999,"REV_AT_EPOCH":13835,"BSTAR":-1.9342131e-5,"MEAN_MOTION_DOT":-9.32e-6,"MEAN_MOTION_DDOT":0},{"OBJECT_NAME":"HONGHU 2","OBJECT_ID":"2023-193C","EPOCH":"2026-03-09T23:21:07.139520","MEAN_MOTION":15.21543878,"ECCENTRICITY":0.00399876,"INCLINATION":97.2779,"RA_OF_ASC_NODE":62.3901,"ARG_OF_PERICENTER":264.1736,"MEAN_ANOMALY":95.4941,"EPHEMERIS_TYPE":0,"CLASSIFICATION_TYPE":"U","NORAD_CAT_ID":58555,"ELEMENT_SET_NO":999,"REV_AT_EPOCH":8691,"BSTAR":0.0061775359,"MEAN_MOTION_DOT":0.00144707,"MEAN_MOTION_DDOT":0}]
